OBJECT_NAME,OBJECT_ID,EPOCH,MEAN_MOTION,ECCENTRICITY,INCLINATION,RA_OF_ASC_NODE,ARG_OF_PERICENTER,MEAN_ANOMALY,EPHEMERIS_TYPE,CLASSIFICATION_TYPE,NORAD_CAT_ID,ELEMENT_SET_NO,REV_AT_EPOCH,BSTAR,MEAN_MOTION_DOT,MEAN_MOTION_DDOT,OBJECT_TYPE
STARLINK-3883,2022-049AU,2026-03-21T11:45:17.324640,15.08841225,.00012318,53.2184,356.1472,85.4197,274.6936,0,U,52493,999,21417,.19995479E-3,.2896E-4,0,Active
STARLINK-3857,2022-049AV,2026-03-21T11:13:28.725312,15.08845129,.00014982,53.2206,356.2466,90.0790,270.0374,0,U,52494,999,21417,.12275722E-3,.1667E-4,0,Active
STARLINK-3871,2022-049AX,2026-03-20T21:46:01.408800,15.08828467,.00013589,53.2196,353.7655,91.9247,268.1901,0,U,52496,999,21415,.13343826E-3,.1836E-4,0,Active
STARLINK-3884,2022-049AY,2026-03-21T00:16:22.850976,15.08849850,.00012114,53.2182,358.2933,88.6836,271.4295,0,U,52497,999,21410,-.1789169E-3,-.3135E-4,0,Active
STARLINK-3925,2022-049AZ,2026-03-21T01:16:00.055488,15.08841843,.00014219,53.2197,348.1101,91.2800,268.8356,0,U,52498,999,21424,.67443106E-4,.786E-5,0,Active
STARLINK-3894,2022-049BA,2026-03-21T11:18:46.290240,15.08855713,.00014919,53.2201,356.2294,91.3874,268.7289,0,U,52499,999,21417,.91239727E-4,.1165E-4,0,Active
STARLINK-3866,2022-049BB,2026-03-21T10:43:00.697440,15.08844687,.00012747,53.2186,346.3412,88.4213,271.6925,0,U,52500,999,21430,.10057402E-3,.1313E-4,0,Active
STARLINK-3907,2022-049BC,2026-03-21T01:14:39.671520,15.08832556,.00012556,53.2191,357.9139,87.8414,272.2722,0,U,52501,999,21411,.55198754E-4,.591E-5,0,Active
STARLINK-3912,2022-049BD,2026-03-21T10:37:43.304448,15.08855241,.00013336,53.2186,346.3879,87.5313,272.5832,0,U,52502,999,21430,.1832575E-3,.2631E-4,0,Active
STARLINK-3861,2022-049BE,2026-03-21T00:49:29.025408,15.08842602,.00015567,53.2184,348.0772,92.6267,267.4904,0,U,52503,999,21424,.98553602E-4,.1281E-4,0,Active
STARLINK-3952,2022-051B,2026-03-21T14:00:01.000224,15.72028839,.00011911,53.2165,68.1467,64.8205,276.7958,0,U,52534,999,583,.829391E-2,.123281E-1,0,Active
STARLINK-3958,2022-051C,2026-03-21T04:04:17.352192,15.08819795,.0000855,53.2171,77.5848,85.7690,274.3400,0,U,52535,999,21317,-.80631695E-4,-.157E-4,0,Active
STARLINK-3964,2022-051D,2026-03-21T05:34:20.658720,15.08837114,.00014644,53.2167,77.2998,74.9785,285.1369,0,U,52536,999,21318,.78961202E-4,.969E-5,0,Active
STARLINK-3897,2022-051E,2026-03-21T05:02:30.557760,15.08835298,.00012743,53.2165,77.2093,89.6500,270.4639,0,U,52537,999,21318,.2047E-7,-.288E-5,0,Active
STARLINK-3933,2022-051F,2026-03-21T05:18:26.503776,15.08835444,.00013594,53.2167,77.3527,86.0814,274.0333,0,U,52538,999,21318,-.8556793E-5,-.424E-5,0,Active
STARLINK-3757,2022-051G,2026-03-21T10:09:53.976960,15.08838482,.00013032,53.2164,76.4444,83.0733,277.0408,0,U,52539,999,21321,.93943902E-4,.1207E-4,0,Active
STARLINK-3940,2022-051H,2026-03-21T09:54:00.317088,15.08837762,.00013666,53.2163,76.5334,85.1545,274.9603,0,U,52540,999,21321,.4484043E-4,.426E-5,0,Active
STARLINK-3845,2022-051J,2026-03-21T04:16:50.964960,15.08835594,.00015181,53.2162,82.5460,90.0281,270.0885,0,U,52541,999,21310,.26594832E-4,.135E-5,0,Active
STARLINK-3937,2022-051K,2026-03-21T06:32:37.520736,15.08841897,.00013082,53.2167,77.1219,85.5436,274.5705,0,U,52542,999,21319,.44187209E-4,.415E-5,0,Active
STARLINK-3926,2022-051L,2026-03-21T09:59:17.687616,15.08838857,.00013095,53.2164,76.4765,81.9344,278.1797,0,U,52543,999,21321,.44072965E-4,.414E-5,0,Active
STARLINK-3944,2022-051M,2026-03-21T07:17:00.755808,15.08844208,.00017406,53.2170,81.9946,70.6921,289.4260,0,U,52544,999,21312,-.48098232E-4,-.1054E-4,0,Active
STARLINK-3948,2022-051P,2026-03-21T10:37:43.980096,15.08855852,.00015761,53.2166,76.1248,85.3329,274.7844,0,U,52546,999,21322,-.30422431E-3,-.5129E-4,0,Active
STARLINK-3931,2022-051R,2026-03-21T04:25:26.677056,15.08841374,.00011367,53.2170,77.5181,85.0793,275.0329,0,U,52548,999,21318,.52721326E-4,.551E-5,0,Active
STARLINK-3935,2022-051S,2026-03-21T09:38:05.632512,15.08846124,.00013437,53.2167,76.5458,86.6208,273.4938,0,U,52549,999,21321,.11092825E-3,.1478E-4,0,Active
STARLINK-3965,2022-051T,2026-03-21T06:11:26.197440,15.08838790,.00012786,53.2169,77.1872,72.9323,287.1809,0,U,52550,999,21319,.78491056E-4,.961E-5,0,Active
STARLINK-3969,2022-051U,2026-03-21T06:22:02.211168,15.08852262,.00011879,53.2168,77.1561,74.8395,285.2729,0,U,52551,999,21319,.79458617E-4,.977E-5,0,Active
STARLINK-3966,2022-051V,2026-03-21T06:16:45.848064,15.08834700,.00011999,53.2173,77.3248,74.3728,285.7397,0,U,52552,999,21319,.18988552E-4,.14E-6,0,Active
STARLINK-3858,2022-051W,2026-03-21T10:15:08.369280,15.08837918,.0001334,53.2170,76.0889,88.0482,272.0663,0,U,52553,999,21322,.4368371E-4,.407E-5,0,Active
STARLINK-3770,2022-051X,2026-03-21T07:11:42.602496,15.08842710,.00014425,53.2171,81.9997,81.3493,278.7662,0,U,52554,999,21312,.10478657E-4,-.121E-5,0,Active
STARLINK-3943,2022-051AA,2026-03-21T05:50:14.964864,15.08834033,.00014009,53.2174,77.2518,84.8773,275.2379,0,U,52557,999,21319,-.35959484E-4,-.86E-5,0,Active
STARLINK-3953,2022-051AC,2026-03-21T06:07:29.508096,15.08837730,.00013521,53.2171,67.3837,86.7496,273.3651,0,U,52559,999,21332,.19503112E-4,.22E-6,0,Active
STARLINK-3956,2022-051AD,2026-03-21T05:46:15.413952,15.08841899,.00014428,53.2175,67.2658,92.7427,267.3730,0,U,52560,999,21332,.17519214E-4,-.9E-7,0,Active
STARLINK-3955,2022-051AE,2026-03-21T10:06:35.078976,15.08836686,.00013901,53.2163,81.4566,81.6153,278.4996,0,U,52561,999,21314,-.5585235E-5,-.377E-5,0,Active
STARLINK-3957,2022-051AF,2026-03-21T05:35:39.496128,15.08832758,.00013366,53.2179,67.2982,86.3592,273.7553,0,U,52562,999,21332,-.51782731E-4,-.1112E-4,0,Active
STARLINK-3942,2022-051AG,2026-03-21T05:25:43.297248,15.08839011,.00013851,53.2169,82.3304,84.3333,275.7817,0,U,52563,999,21311,.43425022E-4,.403E-5,0,Active
STARLINK-3959,2022-051AH,2026-03-21T10:02:39.480864,15.08840320,.00014816,53.2166,81.4772,78.8697,281.2462,0,U,52564,999,21314,.40453821E-4,.356E-5,0,Active
STARLINK-3911,2022-051AJ,2026-03-21T10:27:06.552000,15.08844210,.00013564,53.2171,66.3906,87.4663,272.6484,0,U,52565,999,21335,.39996429E-4,.349E-5,0,Active
STARLINK-3938,2022-051AK,2026-03-21T09:29:29.628384,15.08839130,.00013125,53.2169,81.5701,88.4200,271.6942,0,U,52566,999,21314,.71954256E-4,.857E-5,0,Active
STARLINK-3929,2022-051AL,2026-03-21T05:30:23.521824,15.08827506,.00010585,53.2169,67.3164,93.3785,266.7328,0,U,52567,999,21332,.11744142E-3,.1581E-4,0,Active
STARLINK-3930,2022-051AM,2026-03-21T06:49:52.182336,15.08848609,.00014827,53.2172,67.0657,81.7837,278.3323,0,U,52568,999,21333,.87324296E-4,.1102E-4,0,Active
STARLINK-3927,2022-051AN,2026-03-21T05:25:04.673856,15.08846030,.00012725,53.2177,67.3299,80.9095,279.2041,0,U,52569,999,21332,.79479567E-4,.977E-5,0,Active
STARLINK-3901,2022-051AQ,2026-03-21T05:19:45.838848,15.08836060,.00012232,53.2177,67.3463,88.4892,271.6240,0,U,52574,999,21332,.27628818E-4,.152E-5,0,Active
STARLINK-3932,2022-051AS,2026-03-21T04:54:40.417344,15.08832371,.00014072,53.2178,67.4277,83.3305,276.7847,0,U,52576,999,21332,.1258763E-5,-.268E-5,0,Active
STARLINK-3836,2022-051AT,2026-03-21T07:43:31.699488,15.08844367,.000125,53.2176,81.9002,81.9763,278.1371,0,U,52577,999,21313,.14001032E-3,.1941E-4,0,Active
STARLINK-3833,2022-051AU,2026-03-21T07:48:49.470048,15.08837038,.00013469,53.2177,81.8835,88.1195,271.9952,0,U,52578,999,21313,.71686637E-4,.853E-5,0,Active
STARLINK-3893,2022-051AV,2026-03-21T07:32:53.127456,15.08855052,.00013088,53.2166,81.9349,80.7325,279.3816,0,U,52579,999,21313,.18601043E-3,.2675E-4,0,Active
STARLINK-3919,2022-051AW,2026-03-21T07:39:32.838912,15.08869168,.00012717,53.2174,81.9227,77.0793,283.0341,0,U,52580,999,21313,.29133019E-3,.4355E-4,0,Active
STARLINK-3915,2022-051AX,2026-03-21T06:23:22.735968,15.08843264,.00014786,53.2169,67.1530,99.9123,260.2036,0,U,52581,999,21333,-.9137923E-4,-.1742E-4,0,Active
STARLINK-3895,2022-051AZ,2026-03-21T06:18:03.741120,15.08833857,.00014008,53.2177,67.1677,83.3857,276.7294,0,U,52583,999,21333,.116008E-6,-.286E-5,0,Active
STARLINK-3922,2022-051BA,2026-03-21T09:39:25.740000,15.08840197,.00013604,53.2170,66.5391,80.3619,279.7527,0,U,52584,999,21335,.53311434E-4,.561E-5,0,Active
STARLINK-3906,2022-051BB,2026-03-21T04:26:47.447232,15.08844034,.00014727,53.2175,67.4761,89.5522,270.5639,0,U,52585,999,21332,.12864391E-3,.176E-4,0,Active
STARLINK-3910,2022-051BC,2026-03-21T09:23:31.933248,15.08836507,.00012583,53.2170,66.5895,82.8654,277.2481,0,U,52586,999,21335,.36444293E-4,.292E-5,0,Active
STARLINK-3867,2022-051BD,2026-03-21T05:42:19.522944,15.08850364,.00012753,53.2171,67.1344,84.0456,276.0682,0,U,52587,999,21333,.93592004E-4,.1202E-4,0,Active
STARLINK-3917,2022-051BE,2026-03-21T05:56:51.686016,15.08839884,.00013318,53.2169,67.2340,78.4561,281.6581,0,U,52588,999,21333,-.45698465E-4,-.1015E-4,0,Active
STARLINK-4019,2022-052A,2026-03-21T03:41:04.235136,15.08846719,.00013106,53.2161,232.6554,84.2700,275.8442,0,U,52598,999,21331,-.24552032E-4,-.679E-5,0,Active
STARLINK-4024,2022-052B,2026-03-21T12:55:31.037952,15.08843360,.00012145,53.2167,226.0351,78.3886,281.7242,0,U,52599,999,21344,.108603E-3,.1441E-4,0,Active
STARLINK-4026,2022-052C,2026-03-21T13:59:05.349984,15.08831862,.00010529,53.2164,225.7330,80.3218,279.7893,0,U,52600,999,21345,-.32735216E-4,-.809E-5,0,Active
STARLINK-4027,2022-052D,2026-03-21T14:09:40.773600,15.08843642,.00011707,53.2167,225.7000,94.2095,265.9031,0,U,52601,999,21345,.95912539E-4,.1239E-4,0,Active
STARLINK-4012,2022-052E,2026-03-21T14:04:23.162016,15.08840659,.00011979,53.2171,225.7157,89.7555,270.3574,0,U,52602,999,21345,.79001837E-4,.97E-5,0,Active
STARLINK-4016,2022-052F,2026-03-21T13:44:34.294560,15.08842518,.00011447,53.2162,225.7865,88.1713,271.9411,0,U,52603,999,21345,.61491494E-4,.691E-5,0,Active
STARLINK-4013,2022-052G,2026-03-21T13:53:46.989312,15.08842049,.00012246,53.2171,225.7505,87.5755,272.5377,0,U,52604,999,21265,.87515644E-4,.1105E-4,0,Active
